{
  "norad_id": 55401,
  "name": "STARLINK-5076",
  "history": [
    {
      "epoch": "2026-03-28T21:27:51.128064Z",
      "apogee_km": 574.0416777627861,
      "perigee_km": 570.0116948509185,
      "latitude_deg": 1.4445227964059955e-05,
      "longitude_deg": -132.2974677586207,
      "height_km": 574.4199095858637,
      "semi_major_axis_km": 6950.1636863068525,
      "eccentricity": 0.00028992,
      "inclination_deg": 70.0014,
      "raan_deg": 15.9738,
      "arg_perigee_deg": 270.9735,
      "mean_anomaly_deg": 89.1092,
      "mean_motion_rev_day": 14.98339444
    },
    {
      "epoch": "2026-03-29T03:52:22.965024Z",
      "apogee_km": 574.0046007927222,
      "perigee_km": 570.0263335205218,
      "latitude_deg": -1.307734999757925e-05,
      "longitude_deg": 130.63346646605638,
      "height_km": 574.3997322315665,
      "semi_major_axis_km": 6950.152467156622,
      "eccentricity": 0.0002862,
      "inclination_deg": 70.0013,
      "raan_deg": 15.3006,
      "arg_perigee_deg": 271.2431,
      "mean_anomaly_deg": 88.84,
      "mean_motion_rev_day": 14.98343072
    },
    {
      "epoch": "2026-03-30T02:18:17.320320Z",
      "apogee_km": 573.9466805077946,
      "perigee_km": 570.210244675106,
      "latitude_deg": 8.191990660050216e-05,
      "longitude_deg": 150.88038111876756,
      "height_km": 574.557425918149,
      "semi_major_axis_km": 6950.21546259145,
      "eccentricity": 0.0002688,
      "inclination_deg": 70.0018,
      "raan_deg": 12.9452,
      "arg_perigee_deg": 268.4141,
      "mean_anomaly_deg": 91.6711,
      "mean_motion_rev_day": 14.98322701
    },
    {
      "epoch": "2026-03-30T11:55:04.933632Z",
      "apogee_km": 573.9577577215368,
      "perigee_km": 569.9672885793234,
      "latitude_deg": -7.296993178206932e-06,
      "longitude_deg": 5.27865933006381,
      "height_km": 574.6973885362299,
      "semi_major_axis_km": 6950.099523150429,
      "eccentricity": 0.00028708,
      "inclination_deg": 70.0022,
      "raan_deg": 11.9367,
      "arg_perigee_deg": 261.1391,
      "mean_anomaly_deg": 98.9443,
      "mean_motion_rev_day": 14.98360193
    },
    {
      "epoch": "2026-03-30T19:55:45.499872Z",
      "apogee_km": 573.9751159547695,
      "perigee_km": 570.1148458789294,
      "latitude_deg": -1.9123045225428108e-08,
      "longitude_deg": -116.06067475229666,
      "height_km": 574.7427300836943,
      "semi_major_axis_km": 6950.181980916849,
      "eccentricity": 0.00027771,
      "inclination_deg": 70.0017,
      "raan_deg": 11.0954,
      "arg_perigee_deg": 261.9473,
      "mean_anomaly_deg": 98.1371,
      "mean_motion_rev_day": 14.98333528
    },
    {
      "epoch": "2026-03-31T21:33:54.916992Z",
      "apogee_km": 574.0889243662714,
      "perigee_km": 570.080036616323,
      "latitude_deg": 3.800967741990256e-05,
      "longitude_deg": -144.3484285532253,
      "height_km": 574.4719894064821,
      "semi_major_axis_km": 6950.2214804912965,
      "eccentricity": 0.0002884,
      "inclination_deg": 70.0017,
      "raan_deg": 8.3997,
      "arg_perigee_deg": 271.1415,
      "mean_anomaly_deg": 88.9414,
      "mean_motion_rev_day": 14.98320755
    },
    {
      "epoch": "2026-04-01T11:59:07.448064Z",
      "apogee_km": 574.2389767883187,
      "perigee_km": 569.8978784782184,
      "latitude_deg": -1.4200720135708716e-05,
      "longitude_deg": -2.7581739080449355,
      "height_km": 574.4958563292228,
      "semi_major_axis_km": 6950.205427633268,
      "eccentricity": 0.0003123,
      "inclination_deg": 70.0008,
      "raan_deg": 6.8844,
      "arg_perigee_deg": 270.0053,
      "mean_anomaly_deg": 90.0748,
      "mean_motion_rev_day": 14.98325946
    },
    {
      "epoch": "2026-04-02T12:01:08.043456Z",
      "apogee_km": 574.1542852486764,
      "perigee_km": 569.9419170625688,
      "latitude_deg": 1.6292593576957144e-05,
      "longitude_deg": -6.772663423735664,
      "height_km": 574.4324991450994,
      "semi_major_axis_km": 6950.185101155623,
      "eccentricity": 0.00030304,
      "inclination_deg": 70.0008,
      "raan_deg": 4.3594,
      "arg_perigee_deg": 271.1736,
      "mean_anomaly_deg": 88.9076,
      "mean_motion_rev_day": 14.98332519
    },
    {
      "epoch": "2026-04-02T21:37:56.133696Z",
      "apogee_km": 574.1573858754518,
      "perigee_km": 569.9247274389472,
      "latitude_deg": -1.3709950004620421e-05,
      "longitude_deg": -152.37785660468253,
      "height_km": 574.4284655664745,
      "semi_major_axis_km": 6950.1780566572,
      "eccentricity": 0.0003045,
      "inclination_deg": 70.0006,
      "raan_deg": 3.3494,
      "arg_perigee_deg": 271.0866,
      "mean_anomaly_deg": 88.9944,
      "mean_motion_rev_day": 14.98334797
    },
    {
      "epoch": "2026-04-03T18:27:41.656896Z",
      "apogee_km": 573.8151748713208,
      "perigee_km": 570.3081046377001,
      "latitude_deg": 7.81706830594449e-06,
      "longitude_deg": -107.857658249175,
      "height_km": 574.490230933447,
      "semi_major_axis_km": 6950.19863975451,
      "eccentricity": 0.0002523,
      "inclination_deg": 70.0022,
      "raan_deg": 1.1647,
      "arg_perigee_deg": 269.952,
      "mean_anomaly_deg": 90.135,
      "mean_motion_rev_day": 14.98328141
    },
    {
      "epoch": "2026-04-04T04:04:30.439200Z",
      "apogee_km": 573.9975744086769,
      "perigee_km": 570.1413218629932,
      "latitude_deg": 2.3266107777051143e-05,
      "longitude_deg": 106.53077306854428,
      "height_km": 574.372401452395,
      "semi_major_axis_km": 6950.206448135835,
      "eccentricity": 0.00027742,
      "inclination_deg": 70.0011,
      "raan_deg": 0.1512,
      "arg_perigee_deg": 273.6969,
      "mean_anomaly_deg": 86.3873,
      "mean_motion_rev_day": 14.98325616
    },
    {
      "epoch": "2026-04-05T02:30:22.122144Z",
      "apogee_km": 574.0807200988193,
      "perigee_km": 569.9740069796917,
      "latitude_deg": -3.202530194339881e-06,
      "longitude_deg": 126.78840752930122,
      "height_km": 574.5698503880212,
      "semi_major_axis_km": 6950.164363539256,
      "eccentricity": 0.00029544,
      "inclination_deg": 70.0005,
      "raan_deg": 357.7954,
      "arg_perigee_deg": 266.7889,
      "mean_anomaly_deg": 93.2932,
      "mean_motion_rev_day": 14.98339225
    },
    {
      "epoch": "2026-04-05T18:31:43.192416Z",
      "apogee_km": 574.138695855595,
      "perigee_km": 569.9977635797295,
      "latitude_deg": -3.1009535619798806e-05,
      "longitude_deg": -115.89091802684153,
      "height_km": 574.6233946727175,
      "semi_major_axis_km": 6950.2052297176615,
      "eccentricity": 0.0002979,
      "inclination_deg": 70.0003,
      "raan_deg": 356.1119,
      "arg_perigee_deg": 266.464,
      "mean_anomaly_deg": 93.6178,
      "mean_motion_rev_day": 14.9832601
    },
    {
      "epoch": "2026-04-06T04:08:31.546176Z",
      "apogee_km": 574.1010070985621,
      "perigee_km": 570.0265214025267,
      "latitude_deg": -4.380860775505376e-05,
      "longitude_deg": 98.50269289685046,
      "height_km": 574.5794932265183,
      "semi_major_axis_km": 6950.200764250544,
      "eccentricity": 0.00029312,
      "inclination_deg": 70.0004,
      "raan_deg": 355.1018,
      "arg_perigee_deg": 267.5158,
      "mean_anomaly_deg": 92.5665,
      "mean_motion_rev_day": 14.98327454
    },
    {
      "epoch": "2026-04-07T10:35:04.995456Z",
      "apogee_km": 574.0849568359226,
      "perigee_km": 570.0382731943173,
      "latitude_deg": 5.4510777482768695e-05,
      "longitude_deg": -2.584881035316655,
      "height_km": 574.4992456682982,
      "semi_major_axis_km": 6950.19861501512,
      "eccentricity": 0.00029112,
      "inclination_deg": 70.0001,
      "raan_deg": 351.9038,
      "arg_perigee_deg": 269.7094,
      "mean_anomaly_deg": 90.3732,
      "mean_motion_rev_day": 14.98328149
    },
    {
      "epoch": "2026-04-07T18:35:45.376800Z",
      "apogee_km": 574.090333548228,
      "perigee_km": 570.0355868914348,
      "latitude_deg": 2.1882169996203514e-05,
      "longitude_deg": -123.92375841803214,
      "height_km": 574.5074213648928,
      "semi_major_axis_km": 6950.199960219831,
      "eccentricity": 0.0002917,
      "inclination_deg": 70.0002,
      "raan_deg": 351.0622,
      "arg_perigee_deg": 269.5174,
      "mean_anomaly_deg": 90.5651,
      "mean_motion_rev_day": 14.98327714
    },
    {
      "epoch": "2026-04-08T10:37:05.954592Z",
      "apogee_km": 574.0621569790192,
      "perigee_km": 570.0587042550351,
      "latitude_deg": 2.861427443447499e-07,
      "longitude_deg": -6.601124938493611,
      "height_km": 574.5025736616913,
      "semi_major_axis_km": 6950.197430617027,
      "eccentricity": 0.00028801,
      "inclination_deg": 70.0006,
      "raan_deg": 349.3786,
      "arg_perigee_deg": 269.5774,
      "mean_anomaly_deg": 90.5055,
      "mean_motion_rev_day": 14.98328532
    },
    {
      "epoch": "2026-04-09T20:15:56.856384Z",
      "apogee_km": 574.263703622837,
      "perigee_km": 569.9587198804775,
      "latitude_deg": -5.881789341315409e-05,
      "longitude_deg": -156.2295939132888,
      "height_km": 574.650354151425,
      "semi_major_axis_km": 6950.2482117516565,
      "eccentricity": 0.0003097,
      "inclination_deg": 70.0003,
      "raan_deg": 345.8441,
      "arg_perigee_deg": 267.0288,
      "mean_anomaly_deg": 93.0516,
      "mean_motion_rev_day": 14.98312111
    },
    {
      "epoch": "2026-04-10T01:04:21.323136Z",
      "apogee_km": 574.2876702702242,
      "perigee_km": 569.9420947831932,
      "latitude_deg": -1.0244143086247395e-05,
      "longitude_deg": 130.96607019970287,
      "height_km": 574.7271637524394,
      "semi_major_axis_km": 6950.251882526708,
      "eccentricity": 0.00031262,
      "inclination_deg": 69.9998,
      "raan_deg": 345.3391,
      "arg_perigee_deg": 265.1231,
      "mean_anomaly_deg": 94.9571,
      "mean_motion_rev_day": 14.98310924
    }
  ]
}